OBJECT_NAME,OBJECT_ID,EPOCH,MEAN_MOTION,ECCENTRICITY,INCLINATION,RA_OF_ASC_NODE,ARG_OF_PERICENTER,MEAN_ANOMALY,EPHEMERIS_TYPE,CLASSIFICATION_TYPE,NORAD_CAT_ID,ELEMENT_SET_NO,REV_AT_EPOCH,BSTAR,MEAN_MOTION_DOT,MEAN_MOTION_DDOT
ONEWEB-0158,2021-025N,2026-07-02T03:14:49.261632,13.13468798,.00017605,87.8976,317.2424,102.9696,257.1630,0,U,48054,999,25559,.85214532E-4,.44E-6,0
ONEWEB-0157,2021-025P,2026-07-02T07:30:47.754144,13.13469796,.00022358,87.8975,317.2120,101.3510,258.7871,0,U,48055,999,25555,-.42837092E-3,-.144E-5,0
ONEWEB-0162,2021-025Q,2026-07-02T06:56:28.333248,13.13468847,.00019289,87.8974,317.2176,94.1196,266.0154,0,U,48056,999,25552,.75777713E-3,.289E-5,0
ONEWEB-0155,2021-025R,2026-07-02T07:06:24.591744,13.13468927,.00019576,87.8976,317.2123,102.1723,257.9626,0,U,48057,999,25566,.41952596E-3,.166E-5,0
ONEWEB-0149,2021-025S,2026-07-02T02:09:00.793728,13.13469457,.00019405,87.8976,317.2576,92.7097,267.4255,0,U,48058,999,25544,-.11927358E-2,-.423E-5,0
ONEWEB-0148,2021-025T,2026-07-02T06:44:28.264416,13.13469679,.00022041,87.8971,317.2254,86.0284,274.1097,0,U,48059,999,25559,.65271304E-3,.251E-5,0
ONEWEB-0160,2021-025U,2026-07-02T07:08:50.313120,13.13468448,.00011576,87.8971,317.2182,98.4786,261.6475,0,U,48060,999,25554,.47941873E-3,.188E-5,0
ONEWEB-0163,2021-025V,2026-07-02T03:07:30.956160,13.13468514,.00021762,87.8977,317.2468,101.1692,258.9682,0,U,48061,999,25564,.68333406E-3,.262E-5,0
ONEWEB-0159,2021-025W,2026-07-02T02:55:19.741728,13.13469447,.00021467,87.8980,317.2426,102.2210,257.9159,0,U,48062,999,25556,.63762118E-3,.246E-5,0
ONEWEB-0164,2021-025X,2026-07-02T02:28:30.159840,13.13469624,.00018114,87.8980,317.2524,100.0782,260.0551,0,U,48063,999,25554,-.81872284E-3,-.286E-5,0
ONEWEB-0167,2021-025Y,2026-07-02T06:48:08.367552,13.13469239,.00022415,87.8969,317.2251,115.0865,245.0497,0,U,48064,999,25555,.10757091E-2,.406E-5,0
ONEWEB-0166,2021-025Z,2026-07-02T07:21:02.221344,13.13469759,.00019556,87.8979,317.1933,96.7836,263.3515,0,U,48065,999,25563,-.3905625E-3,-.13E-5,0
ONEWEB-0151,2021-025AA,2026-07-02T07:23:27.670560,13.13468437,.00018757,87.8970,317.2084,101.4808,258.6532,0,U,48066,999,25557,-.18524217E-3,-.55E-6,0
ONEWEB-0170,2021-025AB,2026-07-02T02:06:33.052320,13.13468837,.00014553,87.8973,317.2545,110.7553,249.3732,0,U,48067,999,25550,-.65012762E-3,-.225E-5,0
ONEWEB-0168,2021-025AC,2026-07-02T07:13:42.670848,13.13468400,.00019154,87.8979,317.2126,100.0280,260.1065,0,U,48068,999,25554,.38134747E-3,.152E-5,0
ONEWEB-0173,2021-025AD,2026-07-02T07:01:31.915200,13.13469140,.00021906,87.8974,317.2152,104.3894,255.7478,0,U,48069,999,25578,.58097261E-3,.225E-5,0
ONEWEB-0171,2021-025AE,2026-07-02T02:26:03.738624,13.13469765,.00018548,87.8968,317.2611,101.9303,258.2034,0,U,48070,999,25557,-.93454619E-3,-.329E-5,0
ONEWEB-0172,2021-025AF,2026-07-02T07:25:54.517728,13.13469180,.00019949,87.8972,317.2103,102.9572,257.1780,0,U,48071,999,25649,-.3471929E-3,-.114E-5,0
ONEWEB-0174,2021-025AG,2026-07-02T06:59:05.650368,13.13469741,.0001732,87.8974,317.2132,116.0628,244.0680,0,U,48072,999,25581,.57198324E-3,.222E-5,0
ONEWEB-0175,2021-025AH,2026-07-02T02:13:52.597632,13.13469269,.0001834,87.8978,317.2377,109.1745,250.9583,0,U,48073,999,25544,-.13057114E-2,-.464E-5,0
ONEWEB-0177,2021-025AJ,2026-07-02T02:30:56.866176,13.13469681,.00021175,87.8977,317.2535,97.7058,262.4312,0,U,48074,999,25563,-.26704312E-3,-.85E-6,0
ONEWEB-0178,2021-025AK,2026-07-02T02:57:58.783392,13.13469337,.00020139,87.8967,317.2603,106.9713,253.1637,0,U,48075,999,25568,.43771988E-3,.173E-5,0
ONEWEB-0108,2021-025AL,2026-07-02T07:28:20.423136,13.13468776,.00017815,87.8977,317.2039,92.1817,267.9516,0,U,48076,999,25563,-.78130499E-3,-.273E-5,0
ONEWEB-0169,2021-025AM,2026-07-02T02:45:34.337664,13.13469957,.00019981,87.8973,317.2503,95.8204,264.3153,0,U,48077,999,25426,.51345284E-4,.32E-6,0
ONEWEB-0176,2021-031A,2026-07-02T06:00:26.420256,13.14502051,.00020113,87.8976,286.6975,104.3415,255.7938,0,U,48210,999,25029,-.47130399E-3,-.162E-5,0
ONEWEB-0184,2021-031B,2026-07-02T07:11:13.932384,13.14502600,.00022131,87.8981,286.6895,123.0988,237.0354,0,U,48211,999,25027,-.43382844E-3,-.148E-5,0
ONEWEB-0179,2021-031C,2026-07-02T06:10:12.053280,14.25536973,.02199657,87.8996,283.3457,207.6624,151.2730,0,U,48212,999,25119,.11840996E-3,.379E-5,0
ONEWEB-0180,2021-031D,2026-07-02T07:15:48.639456,13.14503302,.00023634,87.8984,286.6853,105.6821,254.4570,0,U,48213,999,25020,-.41168835E-3,-.14E-5,0
ONEWEB-0218,2021-031E,2026-07-02T05:58:10.187328,13.14503239,.00024923,87.8979,286.6953,120.2421,239.8955,0,U,48214,999,25035,-.71074479E-4,-.14E-6,0
ONEWEB-0209,2021-031F,2026-07-02T07:31:47.233632,13.14502532,.0002241,87.8971,286.6981,99.4127,260.7256,0,U,48215,999,25036,-.44289425E-3,-.151E-5,0
