ONEWEB-0158             
1 48054U 21025N   26183.13529238  .00000044  00000+0  85215-4 0  9996
2 48054  87.8976 317.2424 0001760 102.9696 257.1630 13.13468798255598
ONEWEB-0157             
1 48055U 21025P   26183.31305271 -.00000144  00000+0 -42837-3 0  9991
2 48055  87.8975 317.2120 0002235 101.3510 258.7871 13.13469796255556
ONEWEB-0162             
1 48056U 21025Q   26183.28921682  .00000289  00000+0  75778-3 0  9996
2 48056  87.8974 317.2176 0001928  94.1196 266.0154 13.13468847255523
ONEWEB-0155             
1 48057U 21025R   26183.29611796  .00000166  00000+0  41953-3 0  9992
2 48057  87.8976 317.2123 0001957 102.1723 257.9626 13.13468927255663
ONEWEB-0149             
1 48058U 21025S   26183.08959252 -.00000423  00000+0 -11927-2 0  9997
2 48058  87.8976 317.2576 0001940  92.7097 267.4255 13.13469457255445
ONEWEB-0148             
1 48059U 21025T   26183.28088269  .00000251  00000+0  65271-3 0  9990
2 48059  87.8971 317.2254 0002204  86.0284 274.1097 13.13469679255593
ONEWEB-0160             
1 48060U 21025U   26183.29780455  .00000188  00000+0  47942-3 0  9993
2 48060  87.8971 317.2182 0001157  98.4786 261.6475 13.13468448255544
ONEWEB-0163             
1 48061U 21025V   26183.13021940  .00000262  00000+0  68333-3 0  9994
2 48061  87.8977 317.2468 0002176 101.1692 258.9682 13.13468514255642
ONEWEB-0159             
1 48062U 21025W   26183.12175627  .00000246  00000+0  63762-3 0  9999
2 48062  87.8980 317.2426 0002146 102.2210 257.9159 13.13469447255561
ONEWEB-0164             
1 48063U 21025X   26183.10312685 -.00000286  00000+0 -81872-3 0  9993
2 48063  87.8980 317.2524 0001811 100.0782 260.0551 13.13469624255545
ONEWEB-0167             
1 48064U 21025Y   26183.28343018  .00000406  00000+0  10757-2 0  9992
2 48064  87.8969 317.2251 0002241 115.0865 245.0497 13.13469239255551
ONEWEB-0166             
1 48065U 21025Z   26183.30627571 -.00000130  00000+0 -39056-3 0  9995
2 48065  87.8979 317.1933 0001955  96.7836 263.3515 13.13469759255633
ONEWEB-0151             
1 48066U 21025AA  26183.30795915 -.00000055  00000+0 -18524-3 0  9997
2 48066  87.8970 317.2084 0001875 101.4808 258.6532 13.13468437255578
ONEWEB-0170             
1 48067U 21025AB  26183.08788255 -.00000225  00000+0 -65013-3 0  9996
2 48067  87.8973 317.2545 0001455 110.7553 249.3732 13.13468837255504
ONEWEB-0168             
1 48068U 21025AC  26183.30118832  .00000152  00000+0  38135-3 0  9992
2 48068  87.8979 317.2126 0001915 100.0280 260.1065 13.13468400255546
ONEWEB-0173             
1 48069U 21025AD  26183.29273050  .00000225  00000+0  58097-3 0  9995
2 48069  87.8974 317.2152 0002190 104.3894 255.7478 13.13469140255781
ONEWEB-0171             
1 48070U 21025AE  26183.10143216 -.00000329  00000+0 -93455-3 0  9991
2 48070  87.8968 317.2611 0001854 101.9303 258.2034 13.13469765255576
ONEWEB-0172             
1 48071U 21025AF  26183.30965877 -.00000114  00000+0 -34719-3 0  9999
2 48071  87.8972 317.2103 0001994 102.9572 257.1780 13.13469180256491
ONEWEB-0174             
1 48072U 21025AG  26183.29103762  .00000222  00000+0  57198-3 0  9999
2 48072  87.8974 317.2132 0001732 116.0628 244.0680 13.13469741255816
ONEWEB-0175             
1 48073U 21025AH  26183.09296988 -.00000464  00000+0 -13057-2 0  9996
2 48073  87.8978 317.2377 0001834 109.1745 250.9583 13.13469269255440
ONEWEB-0177             
1 48074U 21025AJ  26183.10482484 -.00000085  00000+0 -26704-3 0  9990
2 48074  87.8977 317.2535 0002117  97.7058 262.4312 13.13469681255637
ONEWEB-0178             
1 48075U 21025AK  26183.12359703  .00000173  00000+0  43772-3 0  9990
2 48075  87.8967 317.2603 0002013 106.9713 253.1637 13.13469337255689
ONEWEB-0108             
1 48076U 21025AL  26183.31134749 -.00000273  00000+0 -78130-3 0  9992
2 48076  87.8977 317.2039 0001781  92.1817 267.9516 13.13468776255636
ONEWEB-0169             
1 48077U 21025AM  26183.11498076  .00000032  00000+0  51345-4 0  9998
2 48077  87.8973 317.2503 0001998  95.8204 264.3153 13.13469957254267
ONEWEB-0176             
1 48210U 21031A   26183.25030579 -.00000162  00000+0 -47130-3 0  9991
2 48210  87.8976 286.6975 0002011 104.3415 255.7938 13.14502051250296
ONEWEB-0184             
1 48211U 21031B   26183.29946681 -.00000148  00000+0 -43383-3 0  9996
2 48211  87.8981 286.6895 0002213 123.0988 237.0354 13.14502600250274
ONEWEB-0179             
1 48212U 21031C   26183.25708395  .00000379  00000+0  11841-3 0  9999
2 48212  87.8996 283.3457 0219965 207.6624 151.2730 14.25536973251199
ONEWEB-0180             
1 48213U 21031D   26183.30264629 -.00000140  00000+0 -41169-3 0  9997
2 48213  87.8984 286.6853 0002363 105.6821 254.4570 13.14503302250207
ONEWEB-0218             
1 48214U 21031E   26183.24872902 -.00000014  00000+0 -71074-4 0  9999
2 48214  87.8979 286.6953 0002492 120.2421 239.8955 13.14503239250354
ONEWEB-0209             
1 48215U 21031F   26183.31374113 -.00000151  00000+0 -44289-3 0  9998
2 48215  87.8971 286.6981 0002241  99.4127 260.7256 13.14502532250363
